STARLINK-30910          
1 58376U 23178C   25196.93661929  .00002205  00000+0  86539-4 0  9991
2 58376  53.1610  20.7577 0001099  85.1490 274.9636 15.30199534 93640
STARLINK-30914          
1 58377U 23178D   25196.92500373  .00000493  00000+0  28767-4 0  9992
2 58377  53.1611  20.6706 0001140  78.4292 281.6836 15.30198241 93648
STARLINK-30920          
1 58378U 23178E   25196.88973942 -.00002352  00000+0 -67304-4 0  9992
2 58378  53.1610   8.4233 0000921  71.6448 288.4653 15.30213040 93817
STARLINK-30882          
1 58379U 23178F   25196.87446684  .00000112  00000+0  15901-4 0  9996
2 58379  53.1602  21.0788 0000973  91.4411 268.6701 15.30195520 93638
STARLINK-30915          
1 58380U 23178G   25196.57979647  .00001056  00000+0  47783-4 0  9996
2 58380  53.1597 292.6921 0000911 103.2241 256.8861 15.30195043 94810
STARLINK-30923          
1 58381U 23178H   25196.75333348 -.00000230  00000+0  43413-5 0  9990
2 58381  53.1621  21.6999 0001097  95.4649 264.6477 15.30200907 93549
STARLINK-30927          
1 58382U 23178J   25196.83236831  .00001415  00000+0  59904-4 0  9995
2 58382  53.1615  21.5250 0001066  87.8429 272.2694 15.30191353 93606
STARLINK-30921          
1 58383U 23178K   25196.88079409  .00000500  00000+0  29012-4 0  9998
2 58383  53.1608  21.1198 0001012  99.3068 260.8047 15.30197499 93617
STARLINK-30825          
1 58384U 23178L   25196.86496262 -.00000583  00000+0 -75742-5 0  9992
2 58384  53.1614  20.9920 0001041  81.6576 278.4542 15.30198717 93636
STARLINK-30930          
1 58385U 23178M   25196.91972696  .00001332  00000+0  57111-4 0  9999
2 58385  53.1609  20.6454 0001180  76.6404 283.4728 15.30192601 93513
STARLINK-30929          
1 58386U 23178N   25196.91664254  .00001401  00000+0  59412-4 0  9991
2 58386  53.1612  21.1342 0001243  83.9137 276.2005 15.30195806 93613
STARLINK-30898          
1 58387U 23178P   25196.77652485  .00001677  00000+0  68747-4 0  9995
2 58387  53.1629  21.7584 0001343  91.2706 268.8448 15.30189095 93612
STARLINK-30913          
1 58388U 23178Q   25196.89346036  .00000773  00000+0  38235-4 0  9996
2 58388  53.1606  21.1949 0001095  97.2393 262.8732 15.30191491 93634
STARLINK-30938          
1 58389U 23178R   25196.89557004  .00001932  00000+0  77334-4 0  9997
2 58389  53.1614  21.2079 0001111  89.5795 270.5333 15.30193978 93633
STARLINK-30868          
1 58390U 23178S   25196.82181210  .00000538  00000+0  30290-4 0  9995
2 58390  53.1608  21.4604 0001033  97.8790 262.2328 15.30195609 93628
STARLINK-30916          
1 58391U 23178T   25196.83551785 -.00001466  00000+0 -37405-4 0  9993
2 58391  53.1620  21.4434 0000448  90.8509 269.2543 15.30201073 93623
STARLINK-30937          
1 58392U 23178U   25196.79333136  .00172667  00000+0  45151-2 0  9992
2 58392  53.1576  20.4797 0004278 262.1084  97.9435 15.37611572 93635
STARLINK-30939          
1 58393U 23178V   25196.87763128  .00002967  00000+0  11228-3 0  9994
2 58393  53.1611  21.0954 0001332  81.3800 278.7352 15.30199037 93506
STARLINK-30887          
1 58394U 23178W   25196.78285243 -.00000583  00000+0 -75497-5 0  9996
2 58394  53.1613  21.7516 0001010  83.0559 277.0557 15.30200718 93590
STARLINK-30934          
1 58395U 23178X   25196.89030796 -.00000434  00000+0 -25264-5 0  9992
2 58395  53.1612  21.2473 0000992 100.1191 259.9922 15.30194178 93562
MALLIGYONG-1            
1 58400U 23179A   25197.22392593  .00002534  00000+0  11140-3 0  9991
2 58400  97.3520  82.4701 0002718 241.9239 118.1723 15.22786823 91653
STARLINK-30964          
1 58402U 23180A   25196.59684569  .00000345  00000+0  40658-4 0  9996
2 58402  43.0031 264.0285 0001787 268.9000  91.1637 15.02529150 91925
STARLINK-30844          
1 58403U 23180B   25196.45401674 -.00000149  00000+0  40152-5 0  9999
2 58403  43.0029 265.5382 0001587 268.9981  91.0680 15.02532712 91782
STARLINK-30876          
1 58404U 23180C   25196.91603067  .00000230  00000+0  32119-4 0  9994
2 58404  43.0037 262.9837 0001572 274.0772  85.9891 15.02534688 91968
STARLINK-30952          
1 58405U 23180D   25196.91269980 -.00000422  00000+0 -16194-4 0  9997
2 58405  43.0025 262.9590 0001307 276.1356  83.9338 15.02537478 91873
STARLINK-30925          
1 58406U 23180E   25196.90936592 -.00004602  00000+0 -32572-3 0  9998
2 58406  43.0032 262.9328 0001437 272.7215  87.3463 15.02547087 91853
STARLINK-30954          
1 58407U 23180F   25196.46055835 -.00000622  00000+0 -31012-4 0  9999
2 58407  43.0019 264.7257 0001381 277.6643  82.4043 15.02532015 91908
STARLINK-30906          
1 58408U 23180G   25196.86618115  .00000039  00000+0  17948-4 0  9992
2 58408  43.0032 263.3033 0001605 271.3488  88.7171 15.02532653 91840
STARLINK-30940          
1 58409U 23180H   25196.92153693  .00000522  00000+0  29796-4 0  9996
2 58409  43.0009 162.6529 0001115 272.3131  87.7592 15.25906836 93142
STARLINK-30933          
1 58410U 23180J   25197.21195685 -.00001049  00000+0 -28616-4 0  9995
2 58410  42.9989 162.2499 0000691 289.4063  70.6714 15.27572302 93182
STARLINK-30919          
1 58411U 23180K   25197.20377074  .00001052  00000+0  92965-4 0  9999
2 58411  43.0028 259.9156 0001322 271.9372  88.1319 15.02529108 91940
STARLINK-30924          
1 58412U 23180L   25196.91728058  .00000499  00000+0  28902-4 0  9993
2 58412  43.0008 164.3306 0001439 264.0311  96.0376 15.25906784 93127
STARLINK-30931          
1 58413U 23180M   25196.85205160  .00000096  00000+0  22194-4 0  9991
2 58413  43.0024 250.5068 0001449 275.1616  84.9061 15.02531672 92100
STARLINK-30922          
1 58414U 23180N   25197.22177745  .00000276  00000+0  35473-4 0  9995
2 58414  43.0031 260.9625 0001442 272.2408  87.8269 15.02534595 92023
STARLINK-30949          
1 58415U 23180P   25197.22510557  .00000486  00000+0  51059-4 0  9999
2 58415  43.0021 260.9745 0001353 273.4343  86.6345 15.02534409 92024
STARLINK-30967          
1 58416U 23180Q   25197.22844462  .00000062  00000+0  19692-4 0  9992
2 58416  43.0032 261.0140 0001761 274.0402  86.0239 15.02530530 92010
STARLINK-30955          
1 58417U 23180R   25196.86941141 -.00000612  00000+0 -30192-4 0  9995
2 58417  43.0027 262.6195 0001625 270.8565  89.2091 15.02541746 91960
STARLINK-30895          
1 58418U 23180S   25196.48386288  .00000431  00000+0  46995-4 0  9994
2 58418  43.0031 264.8989 0001513 273.8457  86.2213 15.02534210 91815
STARLINK-30917          
1 58419U 23180T   25196.70879559 -.00000479  00000+0 -78848-5 0  9995
2 58419  43.0006 202.0929 0001223 272.3713  87.6998 15.27573563 92652
STARLINK-30899          
1 58420U 23180U   25196.87607301  .00000082  00000+0  21149-4 0  9998
2 58420  43.0028 262.6832 0001557 269.2842  90.7822 15.02534734 91853
STARLINK-30902          
1 58421U 23180V   25196.45722483 -.00000169  00000+0  25668-5 0  9990
2 58421  43.0028 264.6941 0001441 273.3608  86.7070 15.02532646 91798
STARLINK-30912          
1 58422U 23180W   25196.63710184  .00000910  00000+0  42579-4 0  9998
2 58422  43.0025 169.0476 0001215 266.7714  93.2999 15.27581006 93291
STARLINK-30900          
1 58423U 23180X   25196.88605875  .00000255  00000+0  33980-4 0  9994
2 58423  43.0025 262.7094 0001650 273.0905  86.9748 15.02532134 91857
STARLINK-30908          
1 58424U 23180Y   25196.86804647 -.00000248  00000+0 -32919-5 0  9997
2 58424  43.0024 261.6760 0001455 271.1590  88.9086 15.02533549 91978
CHUANGXIN 20A (CX-20A)  
1 58425U 23181A   25196.92626626 -.00000103  00000+0  44912-4 0  9999
2 58425  49.9590 119.7536 0014069 324.9154  35.0796 13.41458145 80613
CHUANGXIN 20B (CX-20B)  
1 58426U 23181B   25196.93216612 -.00000077  00000+0  90967-4 0  9992
2 58426  49.9588 119.7761 0012156 328.2368  31.7775 13.41447250 80604
CHUANGXIN 20C (CX-20C)  
1 58427U 23181C   25196.92924413 -.00000075  00000+0  94799-4 0  9992
2 58427  49.9588 119.7619 0012029 317.2155  42.7784 13.41452588 80611
COSMOS 2572             
1 58435U 23182A   25196.45305873  .00097419  00000+0  39409-3 0  9996
2 58435  96.6995 300.7910 0012372 143.5165 216.6952 15.85935967 94968
STARLINK-30869          
1 58437U 23183A   25197.16557861  .00000465  00000+0  49483-4 0  9993
2 58437  43.0029 248.6384 0001664 272.5896  87.4755 15.02534956 91150
STARLINK-30969          
1 58438U 23183B   25197.16891030 -.00001203  00000+0 -73998-4 0  9994
2 58438  43.0012 248.6629 0001557 273.5823  86.4841 15.02537103 91159
STARLINK-30951          
1 58439U 23183C   25197.25002315 -.00019662  00000+0 -14442-2 0  9990
2 58439  43.0012 248.1381 0001602 268.4933 206.8288 15.02542843 91167
STARLINK-30950          
1 58440U 23183D   25197.12481174  .00001464  00000+0  62697-4 0  9998
2 58440  43.0024 101.1205 0001300 264.6442  95.4262 15.27582617 92876
STARLINK-30942          
1 58441U 23183E   25196.14843727 -.00000205  00000+0 -73023-7 0  9998
2 58441  43.0020 253.9088 0001581 279.8379  80.2285 15.02528990 90980
STARLINK-30959          
1 58442U 23183F   25196.87303407 -.00000184  00000+0  14564-5 0  9993
2 58442  43.0017 249.8858 0001505 276.4845  83.5826 15.02531391 91115
STARLINK-30971          
1 58443U 23183G   25196.48415570 -.00000309  00000+0 -78013-5 0  9995
2 58443  43.0021 252.1220 0001589 279.2903  80.7759 15.02530419 91034
STARLINK-30963          
1 58444U 23183H   25197.20208941  .00000325  00000+0  39137-4 0  9998
2 58444  43.0025 248.0476 0001529 275.9702  84.0966 15.02533685 91169
STARLINK-30961          
1 58445U 23183J   25196.86636858  .00000392  00000+0  44078-4 0  9996
2 58445  43.0023 249.8307 0001646 275.9980  84.0675 15.02534622 91099
STARLINK-30975          
1 58446U 23183K   25196.84761753 -.00000057  00000+0  10837-4 0  9993
2 58446  43.0021 250.5366 0001491 274.4372  85.6300 15.02532965 91101
STARLINK-30976          
1 58447U 23183L   25196.85638776  .00000424  00000+0  46476-4 0  9998
2 58447  43.0023 249.7895 0001995 281.9857  78.0762 15.02532791 91094
